STARLINK-30169          
1 57499U 23113E   26068.17478772 -.00001723  00000+0 -53049-4 0  9998
2 57499  43.0048   4.7938 0002385 269.5550  90.5028 15.27589512143609
FLOCK 4G-24             
1 62637U 25009AE  26068.72509072  .00010513  00000+0  38996-3 0  9991
2 62637  97.4061 151.5140 0001802 280.2808  79.8228 15.27784978 63732
